VIKING
1 16614U 86019B   10304.93938694 +.00000074 +00000-0 +33410-3 0 02348
2 16614 098.8113 309.9391 4707787 329.2894 010.1118 05.50518389496253
OutputFile:puke.txt
ISO Start Date/Time:2010-11-01T23:55:00
ISO End   Date/Time:2010-11-01T23:55:00
Internal Field Model:IGRF
External Field Model:T89
Kp:4.3
Dst:-20
PitchAngles:0
